{"type": "FeatureCollection", "features": [ {"type": "Feature", "properties": {"norad_id": 43622, "name": "BEIDOU-3 M13 (C32)", "group": "beidou", "lat": -50.12936682696592, "lon": 16.324578909436386, "alt_km": 21517.39745202794, "timestamp": "2025-12-13T15:35:12.371784+00:00", "meta": {"OBJECT_NAME": "BEIDOU-3 M13 (C32)", "OBJECT_ID": "2018-072A", "EPOCH": "2025-12-12T16:12:36.163584", "MEAN_MOTION": 1.8623072, "ECCENTRICITY": 0.0005872, "INCLINATION": 56.4592, "RA_OF_ASC_NODE": 68.8222, "ARG_OF_PERICENTER": 298.9421, "MEAN_ANOMALY": 61.0187, "EPHEMERIS_TYPE": 0, "CLASSIFICATION_TYPE": "U", "NORAD_CAT_ID": 43622, "ELEMENT_SET_NO": 999, "REV_AT_EPOCH": 4918, "BSTAR": 0, "MEAN_MOTION_DOT": -7.4e-07, "MEAN_MOTION_DDOT": 0}, "tle": {"line1": "1 43622U 18072A   25346.67541856 -.00000074  00000+0  00000+0 0  9997", "line2": "2 43622  56.4592  68.8222 0005872 298.9421  61.0187  1.86230720 49189"}}, "geometry": {"type": "Point", "coordinates": [16.324578909436386, -50.12936682696592]}}, {"type": "Feature", "properties": {"norad_id": 43623, "name": "BEIDOU-3 M14 (C33)", "group": "beidou", "lat": 19.21201079329154, "lon": 82.13596403839823, "alt_km": 21519.791984446925, "timestamp": "2025-12-13T15:35:12.371798+00:00", "meta": {"OBJECT_NAME": "BEIDOU-3 M14 (C33)", "OBJECT_ID": "2018-072B", "EPOCH": "2025-12-12T00:05:39.634080", "MEAN_MOTION": 1.86230719, "ECCENTRICITY": 0.00032787, "INCLINATION": 56.4604, "RA_OF_ASC_NODE": 68.8385, "ARG_OF_PERICENTER": 334.6213, "MEAN_ANOMALY": 25.3832, "EPHEMERIS_TYPE": 0, "CLASSIFICATION_TYPE": "U", "NORAD_CAT_ID": 43623, "ELEMENT_SET_NO": 999, "REV_AT_EPOCH": 4916, "BSTAR": 0, "MEAN_MOTION_DOT": -6.8e-07, "MEAN_MOTION_DDOT": 0}, "tle": {"line1": "1 43623U 18072B   25346.00393095 -.00000068  00000+0  00000+0 0  9998", "line2": "2 43623  56.4604  68.8385 0003278 334.6213  25.3832  1.86230719 49165"}}, "geometry": {"type": "Point", "coordinates": [82.13596403839823, 19.21201079329154]}}, {"type": "Feature", "properties": {"norad_id": 43647, "name": "BEIDOU-3 M16 (C35)", "group": "beidou", "lat": -53.60430015119523, "lon": -130.99632388527536, "alt_km": 21537.76411141794, "timestamp": "2025-12-13T15:35:12.371823+00:00", "meta": {"OBJECT_NAME": "BEIDOU-3 M16 (C35)", "OBJECT_ID": "2018-078A", "EPOCH": "2025-12-12T03:52:56.248896", "MEAN_MOTION": 1.86232291, "ECCENTRICITY": 0.00071745, "INCLINATION": 54.2625, "RA_OF_ASC_NODE": 306.5413, "ARG_OF_PERICENTER": 19.216, "MEAN_ANOMALY": 340.802, "EPHEMERIS_TYPE": 0, "CLASSIFICATION_TYPE": "U", "NORAD_CAT_ID": 43647, "ELEMENT_SET_NO": 999, "REV_AT_EPOCH": 4867, "BSTAR": 0, "MEAN_MOTION_DOT": -9.2e-07, "MEAN_MOTION_DDOT": 0}, "tle": {"line1": "1 43647U 18078A   25346.16176214 -.00000092  00000+0  00000+0 0  9996", "line2": "2 43647  54.2625 306.5413 0007174  19.2160 340.8020  1.86232291 48676"}}, "geometry": {"type": "Point", "coordinates": [-130.99632388527536, -53.60430015119523]}}, {"type": "Feature", "properties": {"norad_id": 43648, "name": "BEIDOU-3 M15 (C34)", "group": "beidou", "lat": -8.792796212802514, "lon": 132.86253905644324, "alt_km": 21539.401202200846, "timestamp": "2025-12-13T15:35:12.371836+00:00", "meta": {"OBJECT_NAME": "BEIDOU-3 M15 (C34)", "OBJECT_ID": "2018-078B", "EPOCH": "2025-12-12T19:52:13.655712", "MEAN_MOTION": 1.86231884, "ECCENTRICITY": 0.00036384, "INCLINATION": 54.2577, "RA_OF_ASC_NODE": 306.5185, "ARG_OF_PERICENTER": 18.0764, "MEAN_ANOMALY": 341.9269, "EPHEMERIS_TYPE": 0, "CLASSIFICATION_TYPE": "U", "NORAD_CAT_ID": 43648, "ELEMENT_SET_NO": 999, "REV_AT_EPOCH": 4870, "BSTAR": 0, "MEAN_MOTION_DOT": -9.5e-07, "MEAN_MOTION_DDOT": 0}, "tle": {"line1": "1 43648U 18078B   25346.82793583 -.00000095  00000+0  00000+0 0  9997", "line2": "2 43648  54.2577 306.5185 0003638  18.0764 341.9269  1.86231884 48705"}}, "geometry": {"type": "Point", "coordinates": [132.86253905644324, -8.792796212802514]}}, {"type": "Feature", "properties": {"norad_id": 43683, "name": "BEIDOU-3 G1 (C59)", "group": "beidou", "lat": -0.2784913463262161, "lon": 96.42906101831026, "alt_km": 35783.83762990061, "timestamp": "2025-12-13T15:35:12.371848+00:00", "meta": {"OBJECT_NAME": "BEIDOU-3 G1 (C59)", "OBJECT_ID": "2018-085A", "EPOCH": "2025-12-13T00:25:09.166080", "MEAN_MOTION": 1.0027068, "ECCENTRICITY": 0.00016999, "INCLINATION": 2.6087, "RA_OF_ASC_NODE": 102.9683, "ARG_OF_PERICENTER": 61.5479, "MEAN_ANOMALY": 63.7963, "EPHEMERIS_TYPE": 0, "CLASSIFICATION_TYPE": "U", "NORAD_CAT_ID": 43683, "ELEMENT_SET_NO": 999, "REV_AT_EPOCH": 2619, "BSTAR": 0, "MEAN_MOTION_DOT": -2.64e-06, "MEAN_MOTION_DDOT": 0}, "tle": {"line1": "1 43683U 18085A   25347.01746720 -.00000264  00000+0  00000+0 0  9995", "line2": "2 43683   2.6087 102.9683 0001699  61.5479  63.7963  1.00270680 26191"}}, "geometry": {"type": "Point", "coordinates": [96.42906101831026, -0.2784913463262161]}}, {"type": "Feature", "properties": {"norad_id": 43706, "name": "BEIDOU-3 M17 (C36)", "group": "beidou", "lat": 53.78748718962591, "lon": -90.74418096865982, "alt_km": 21534.702336625425, "timestamp": "2025-12-13T15:35:12.371860+00:00", "meta": {"OBJECT_NAME": "BEIDOU-3 M17 (C36)", "OBJECT_ID": "2018-093A", "EPOCH": "2025-12-12T04:17:11.485824", "MEAN_MOTION": 1.86228421, "ECCENTRICITY": 0.00062217, "INCLINATION": 54.1726, "RA_OF_ASC_NODE": 188.6407, "ARG_OF_PERICENTER": 307.45, "MEAN_ANOMALY": 230.9206, "EPHEMERIS_TYPE": 0, "CLASSIFICATION_TYPE": "U", "NORAD_CAT_ID": 43706, "ELEMENT_SET_NO": 999, "REV_AT_EPOCH": 4805, "BSTAR": 0, "MEAN_MOTION_DOT": 7.8e-07, "MEAN_MOTION_DDOT": 0}, "tle": {"line1": "1 43706U 18093A   25346.17860516  .00000078  00000+0  00000+0 0  9998", "line2": "2 43706  54.1726 188.6407 0006221 307.4500 230.9206  1.86228421 48054"}}, "geometry": {"type": "Point", "coordinates": [-90.74418096865982, 53.78748718962591]}}, {"type": "Feature", "properties": {"norad_id": 43707, "name": "BEIDOU-3 M18 (C37)", "group": "beidou", "lat": 2.145122847644717, "lon": 7.037853300598734, "alt_km": 21546.104968676897, "timestamp": "2025-12-13T15:35:12.371871+00:00", "meta": {"OBJECT_NAME": "BEIDOU-3 M18 (C37)", "OBJECT_ID": "2018-093B", "EPOCH": "2025-12-12T07:27:53.740224", "MEAN_MOTION": 1.86226578, "ECCENTRICITY": 0.00063412, "INCLINATION": 54.1733, "RA_OF_ASC_NODE": 188.6279, "ARG_OF_PERICENTER": 353.0309, "MEAN_ANOMALY": 7.0205, "EPHEMERIS_TYPE": 0, "CLASSIFICATION_TYPE": "U", "NORAD_CAT_ID": 43707, "ELEMENT_SET_NO": 999, "REV_AT_EPOCH": 4805, "BSTAR": 0, "MEAN_MOTION_DOT": 8e-07, "MEAN_MOTION_DDOT": 0}, "tle": {"line1": "1 43707U 18093B   25346.31103866  .00000080  00000+0  00000+0 0  9996", "line2": "2 43707  54.1733 188.6279 0006341 353.0309   7.0205  1.86226578 48050"}}, "geometry": {"type": "Point", "coordinates": [7.037853300598734, 2.145122847644717]}}, {"type": "Feature", "properties": {"norad_id": 44204, "name": "BEIDOU-3 IGSO-1 (C38)", "group": "beidou", "lat": 25.059890699688086, "lon": 56.283968345146725, "alt_km": 35902.859973166145, "timestamp": "2025-12-13T15:35:12.371882+00:00", "meta": {"OBJECT_NAME": "BEIDOU-3 IGSO-1 (C38)", "OBJECT_ID": "2019-023A", "EPOCH": "2025-11-19T14:15:02.708640", "MEAN_MOTION": 1.00252177, "ECCENTRICITY": 0.0026966, "INCLINATION": 58.4003, "RA_OF_ASC_NODE": 39.8168, "ARG_OF_PERICENTER": 221.2202, "MEAN_ANOMALY": 126.9723, "EPHEMERIS_TYPE": 0, "CLASSIFICATION_TYPE": "U", "NORAD_CAT_ID": 44204, "ELEMENT_SET_NO": 999, "REV_AT_EPOCH": 510, "BSTAR": 0, "MEAN_MOTION_DOT": -2.26e-06, "MEAN_MOTION_DDOT": 0}, "tle": {"line1": "1 44204U 19023A   25323.59378135 -.00000226  00000+0  00000+0 0  9994", "line2": "2 44204  58.4003  39.8168 0026966 221.2202 126.9723  1.00252177  5102"}}, "geometry": {"type": "Point", "coordinates": [56.283968345146725, 25.059890699688086]}}, {"type": "Feature", "properties": {"norad_id": 44231, "name": "BEIDOU-2 G8 (C01)", "group": "beidou", "lat": 0.7521581666506434, "lon": 100.92217880854915, "alt_km": 35810.8101282438, "timestamp": "2025-12-13T15:35:12.371903+00:00", "meta": {"OBJECT_NAME": "BEIDOU-2 G8 (C01)", "OBJECT_ID": "2019-027A", "EPOCH": "2025-12-12T19:18:15.189408", "MEAN_MOTION": 1.00267874, "ECCENTRICITY": 0.00087096, "INCLINATION": 1.6624, "RA_OF_ASC_NODE": 74.7062, "ARG_OF_PERICENTER": 256.0238, "MEAN_ANOMALY": 185.0734, "EPHEMERIS_TYPE": 0, "CLASSIFICATION_TYPE": "U", "NORAD_CAT_ID": 44231, "ELEMENT_SET_NO": 999, "REV_AT_EPOCH": 2421, "BSTAR": 0, "MEAN_MOTION_DOT": -2.36e-06, "MEAN_MOTION_DDOT": 0}, "tle": {"line1": "1 44231U 19027A   25346.80434247 -.00000236  00000+0  00000+0 0  9995", "line2": "2 44231   1.6624  74.7062 0008709 256.0238 185.0734  1.00267874 24213"}}, "geometry": {"type": "Point", "coordinates": [100.92217880854915, 0.7521581666506434]}}, {"type": "Feature", "properties": {"norad_id": 44337, "name": "BEIDOU-3 IGSO-2 (C39)", "group": "beidou", "lat": -54.754395821127126, "lon": 80.57804218502962, "alt_km": 35747.39587731961, "timestamp": "2025-12-13T15:35:12.371914+00:00", "meta": {"OBJECT_NAME": "BEIDOU-3 IGSO-2 (C39)", "OBJECT_ID": "2019-035A", "EPOCH": "2025-12-10T21:20:38.716800", "MEAN_MOTION": 1.00271557, "ECCENTRICITY": 0.00373373, "INCLINATION": 55.2247, "RA_OF_ASC_NODE": 160.5169, "ARG_OF_PERICENTER": 202.3364, "MEAN_ANOMALY": 156.6887, "EPHEMERIS_TYPE": 0, "CLASSIFICATION_TYPE": "U", "NORAD_CAT_ID": 44337, "ELEMENT_SET_NO": 999, "REV_AT_EPOCH": 2377, "BSTAR": 0, "MEAN_MOTION_DOT": -6.6e-07, "MEAN_MOTION_DDOT": 0}, "tle": {"line1": "1 44337U 19035A   25344.88933700 -.00000066  00000+0  00000+0 0  9996", "line2": "2 44337  55.2247 160.5169 0037337 202.3364 156.6887  1.00271557 23777"}}, "geometry": {"type": "Point", "coordinates": [80.57804218502962, -54.754395821127126]}}]}